295P/LINEAR,e,21.0769,7.4097,72.9555,5.302632,0.0807173,0.61752641,289.0706,02/25.0/2024,2000,g 12.0,4.0
# From MPEC 2021-N06
296P/Garradd,e,25.2990,263.5189,349.9093,3.488284,0.1512817,0.48012536,189.9276,02/25.0/2024,2000,g 14.0,4.0
# From MPC102956
297P/Beshore,e,10.5901,94.5282,138.5914,3.499695,0.1505424,0.31530761,168.1856,02/25.0/2024,2000,g 15.0,4.0
# From MPC114609
298P/Christensen,e,7.8707,52.8072,100.5945,3.589340,0.1449380,0.38640009,183.6879,02/25.0/2024,2000,g 15.0,4.0
# From MPEC 2024-D33
299P/Catalina-PANSTARRS,e,10.4677,271.5837,323.6956,4.389621,0.1071676,0.28095086,352.9915,02/25.0/2024,2000,g 11.5,4.0
# From MPEC 2023-VM5
300P/Catalina,e,5.6754,95.6170,222.9303,2.697811,0.2224266,0.69175490,71.1520,02/25.0/2024,2000,g 16.0,4.0
# From MPC 89014
301P/LINEAR-NEAT,e,10.3326,351.0819,193.5116,5.745667,0.0715638,0.58578609,249.4438,02/25.0/2024,2000,g 13.0,4.0
# From MPEC 2023-N01
302P/Lemmon-PANSTARRS,e,6.0345,121.7158,208.5944,4.270616,0.1116782,0.22992072,317.7640,02/25.0/2024,2000,g 12.5,4.0
# From MPC 92278
303P/NEAT,e,7.0173,347.9797,357.0002,5.041861,0.0870598,0.51062453,296.8173,02/25.0/2024,2000,g 13.5,4.0
# From MPEC 2022-K19
304P/Ory,e,2.6064,58.9407,335.2576,3.150429,0.1762583,0.60100059,227.4533,02/25.0/2024,2000,g 16.5,4.0
# From MPC101100
305P/Skiff,e,11.6669,240.1473,147.3706,4.636426,0.0987254,0.69399597,333.7278,02/25.0/2024,2000,g 18.0,4.0
# From MPC 92278
306P/LINEAR,e,8.3051,341.3728,0.8909,3.124476,0.1784589,0.59279803,266.5650,02/25.0/2024,2000,g 19.0,4.0
# From MPC 92278
307P/LINEAR,e,4.4367,158.1688,222.1935,5.788265,0.0707753,0.67548533,236.7751,02/25.0/2024,2000,g 15.0,4.0
# From MPEC 2022-C56
308P/Lagerkvist-Carsenty,e,4.8533,63.0962,333.6945,6.599523,0.0581347,0.36469928,186.5379,02/25.0/2024,2000,g 13.0,2.0
# From MPEC 2024-BE0
309P/LINEAR,e,17.0221,10.1440,49.9152,4.376952,0.1076333,0.61851642,356.4476,02/25.0/2024,2000,g 15.0,4.0
# From MPEC 2024-C04
310P/Hill,e,13.1197,8.9035,31.5748,4.186140,0.1150757,0.42273135,14.3264,02/25.0/2024,2000,g 13.5,4.0
# From MPEC 2024-A43
311P/PANSTARRS,e,4.9709,279.1719,144.2544,2.188662,0.3043939,0.11580387,16.4699,02/25.0/2024,2000,g 17.0,4.0
# From MPEC 2021-BE3
312P/NEAT,e,19.7587,144.7012,207.6598,3.470999,0.1524131,0.42721705,190.2150,02/25.0/2024,2000,g 16.0,4.0
# From MPEC 2021-S45
313P/Gibbs,e,10.9806,106.0003,254.8643,3.164216,0.1751075,0.23474537,246.8007,02/25.0/2024,2000,g 15.0,4.0
# From MPC105243
314P/Montani,e,3.9901,267.6146,213.8551,7.252509,0.0504628,0.41771538,135.9594,02/25.0/2024,2000,g  9.5,4.0
# From MPEC 2023-J29
315P/LONEOS,e,17.7322,68.7025,65.7977,4.938951,0.0897950,0.52149816,237.7836,02/25.0/2024,2000,g 11.0,4.0
# From MPC 92279
316P/LONEOS-Christensen,e,9.7997,192.1919,243.0775,4.421589,0.1060075,0.15861347,334.6517,02/25.0/2024,2000,g 13.5,4.0
# From MPEC 2020-C98
317P/WISE,e,11.9659,275.4663,334.8238,2.961354,0.1934054,0.57128776,241.2148,02/25.0/2024,2000,g 17.5,4.0
# From MPC102103
318P/McNaught-Hartley,e,17.8748,35.5624,313.3243,7.509674,0.0478930,0.67436073,145.8033,02/25.0/2024,2000,g  8.5,6.0
# From MPC 97499
319P/Catalina-McNaught,e,15.0941,111.3455,203.6595,3.563715,0.1465041,0.66633686,101.9395,02/25.0/2024,2000,g 15.0,4.0
# From MPC 96281
320P/McNaught,e,4.9037,295.9419,0.7799,3.095002,0.1810142,0.68485840,205.3985,02/25.0/2024,2000,g 20.5,4.0
# From MPC105243
321P/SOHO,e,20.0787,165.0111,172.7502,2.422391,0.2614194,0.98105654,0.0000,10/26.6086/2023,2000,g 20.0,4.0
# From MPC102103
322P/SOHO,e,11.4715,351.4997,56.9175,2.508053,0.2481413,0.97998122,0.0000,08/21.0899/2023,2000,g 19.0,4.0
# From MPEC 2023-XP6
323P/SOHO,e,5.3317,324.2796,353.1311,2.583457,0.2373571,0.98463176,0.0000,03/14.3094/2025,2000,g 20.0,4.0
# From MPEC 2021-W31
324P/LaSagra,e,21.3996,270.5778,57.5470,3.095626,0.1809595,0.15323495,185.7478,02/25.0/2024,2000,g 13.0,4.0
# From MPEC 2022-TA0
325P/Yang-Gao,e,16.7881,257.1290,344.5800,3.542375,0.1478299,0.59155458,103.2452,02/25.0/2024,2000,g 14.0,4.0
# From MPEC 2023-XP6
326P/Hill,e,2.4712,99.7902,278.6356,4.069481,0.1200592,0.31939437,6.8011,02/25.0/2024,2000,g 13.5,4.0
# From MPEC 2024-A43
327P/VanNess,e,36.2473,173.9891,185.0351,3.562230,0.1465956,0.56295977,79.2643,02/25.0/2024,2000,g 16.0,4.0
# From MPC109148
328P/LONEOS-Tucker,e,17.6755,341.6512,30.6083,4.188062,0.1149965,0.55266551,342.2933,02/25.0/2024,2000,g 14.5,4.0
# From MPC101101
329P/LINEAR-Catalina,e,21.7125,87.6856,343.5540,5.185497,0.0834677,0.67873310,250.7885,02/25.0/2024,2000,g 13.5,4.0
# From MPEC 2023-J29
330P/Catalina,e,15.7268,293.0793,188.8202,6.618505,0.0578848,0.54976311,158.4644,02/25.0/2024,2000,g 12.0,4.0
# From MPEC 2023-KD6
331P/Gibbs,e,9.7402,216.7518,184.9344,3.004441,0.1892598,0.04147861,234.0562,02/25.0/2024,2000,g 12.0,4.0
# From MPEC 2016-K18
332P/Ikeya-Murakami,e,9.3820,3.7613,152.2917,3.086922,0.1817253,0.48941411,167.3321,02/25.0/2024,2000,g 18.0,4.0
# From MPEC 2016-K18
332P-A/Ikeya-Murakami,e,9.3825,152.3094,3.7437,3.086918,0.1817257,0.48941767,167.3316,02/25.0/2024,2000,g  9.0,4.0
# From MPEC 2016-EI8
332P-B/Ikeya-Murakami,e,9.3805,3.8028,152.3711,3.082329,0.1821317,0.48970701,359.9699,03/17.0/2016,2000,g 19.0,4.0
# From MPEC 2016-K18
332P-C/Ikeya-Murakami,e,9.3815,152.3007,3.7442,3.086884,0.1817287,0.48942322,167.3485,02/25.0/2024,2000,g 16.5,4.0
# From MPEC 2016-ED0
332P-D/Ikeya-Murakami,e,9.3761,3.7923,152.4393,3.081138,0.1822373,0.48977814,359.9486,03/17.0/2016,2000,g 19.0,4.0
# From MPEC 2016-ED0
332P-E/Ikeya-Murakami,e,9.3774,3.8228,152.2825,3.079877,0.1823493,0.48922008,359.9889,03/17.0/2016,2000,g 21.0,4.0
# From MPEC 2016-ED0
332P-F/Ikeya-Murakami,e,9.5293,3.4757,152.8203,3.163214,0.1751908,0.49918860,359.8501,03/17.0/2016,2000,g 21.0,4.0
# From MPEC 2016-ED0
332P-G/Ikeya-Murakami,e,9.2523,3.6955,154.4000,3.050519,0.1849880,0.49200362,359.9006,03/19.0/2016,2000,g 19.0,4.0
# From MPC100285
332P-H/Ikeya-Murakami,e,9.3820,152.3014,3.7439,3.087066,0.1817126,0.48945884,167.2685,02/25.0/2024,2000,g 19.0,4.0
# From MPEC 2016-ED0
332P-I/Ikeya-Murakami,e,9.3791,3.8048,152.3297,3.081767,0.1821815,0.48955490,359.9360,03/17.0/2016,2000,g 20.5,2.0
# From MPEC 2016-EI8
332P-J/Ikeya-Murakami,e,9.4296,3.6729,152.7712,3.115165,0.1792596,0.49429435,359.8613,03/17.0/2016,2000,g 20.5,2.0
# From MPEC 2020-L06
333P/LINEAR,e,132.0102,115.6585,26.0056,4.221908,0.1136164,0.73650522,328.4138,02/25.0/2024,2000,g 15.0,4.0
# From MPEC 2023-J29
334P/NEAT,e,20.3777,90.4932,90.0421,6.830579,0.0552100,0.35098991,135.7053,02/25.0/2024,2000,g 10.5,4.0
# From MPEC 2023-M14
335P/Gibbs,e,7.2936,330.8219,162.2989,3.577886,0.1456345,0.54644248,81.8365,02/25.0/2024,2000,g 16.8,4.0
# From MPC105244
336P/McNaught,e,17.8246,298.2174,308.6509,5.037722,0.0871671,0.44390239,225.3631,02/25.0/2024,2000,g 13.5,4.0
# From MPEC 2024-A43
337P/WISE,e,15.4474,105.4023,161.8681,3.294830,0.1647990,0.49840233,99.2938,02/25.0/2024,2000,g 17.0,4.0
# From MPEC 2023-J29
338P/McNaught,e,25.3867,9.7933,4.5719,3.891738,0.1283774,0.41212167,339.4627,02/25.0/2024,2000,g 12.0,4.0
# From MPC101101
339P/Gibbs,e,5.7331,27.4772,172.6972,3.700471,0.1384582,0.63566648,24.6545,02/25.0/2024,2000,g 17.0,4.0
# From MPC133426
340P/Boattini,e,2.0784,291.6723,36.0446,4.249057,0.1125292,0.28040724,297.9822,02/25.0/2024,2000,g 14.3,4.0
# From MPEC 2023-J29
341P/Gibbs,e,3.7966,29.9646,312.3228,4.288263,0.1109895,0.41549338,313.0984,02/25.0/2024,2000,g 12.5,4.0
# From MPC101101
342P/SOHO,e,11.6918,73.3146,27.6407,3.041134,0.1858450,0.98290209,0.0000,10/19.3783/2021,2000,g  9.0,4.0
# From MPEC 2023-J29
343P/NEAT-LONEOS,e,5.5958,257.0667,137.5692,5.457488,0.0773063,0.58525843,199.3643,02/25.0/2024,2000,g 14.0,4.0
# From MPEC 2023-J29
344P/Read,e,3.4982,273.1018,140.5394,4.858123,0.0920452,0.42371811,245.3661,02/25.0/2024,2000,g 13.0,4.0
# From MPEC 2022-K19
345P/LINEAR,e,2.7279,154.5952,196.6528,4.031997,0.1217373,0.22128344,337.1271,02/25.0/2024,2000,g 12.0,4.0
# From MPEC 2022-K19
346P/Catalina,e,22.2155,102.4539,336.0058,4.471012,0.1042546,0.50377392,267.4018,02/25.0/2024,2000,g 14.0,4.0
# From MPEC 2023-XP6
347P/PANSTARRS,e,11.7598,260.9885,98.3951,3.607431,0.1438491,0.38685398,31.6602,02/25.0/2024,2000,g 15.0,4.0
# From MPEC 2022-ED3
348P/PANSTARRS,e,17.7371,312.9356,135.7051,3.151950,0.1761307,0.30732221,130.7165,02/25.0/2024,2000,g 14.0,4.0
# From MPEC 2024-BE0
349P/Lemmon,e,5.4885,331.7533,255.7972,3.578358,0.1456057,0.29854042,346.5816,02/25.0/2024,2000,g 14.0,4.0
# From MPC111775
350P/McNaught,e,7.3639,65.2933,139.8983,4.081748,0.1195184,0.09430350,270.2833,02/25.0/2024,2000,g 14.0,4.0
# From MPC105244
351P/Wiegert-PANSTARRS,e,12.7761,352.6831,283.3319,4.440522,0.1053302,0.29480931,318.3429,02/25.0/2024,2000,g 12.5,4.0
# From MPEC 2023-J29
352P/Skiff,e,21.0134,28.0067,309.4041,6.651452,0.0574552,0.61700728,140.1520,02/25.0/2024,2000,g 13.2,4.0
# From MPEC 2020-AA5
353P/McNaught,e,28.4165,121.5356,230.4826,4.170658,0.1157170,0.47004757,260.8028,02/25.0/2024,2000,g 14.5,4.0
# From MPC105545
354P/LINEAR,e,5.2530,132.7460,320.0417,2.289872,0.2844378,0.12454506,38.1363,02/25.0/2024,2000,g 15.5,4.0
# From MPEC 2023-CD7
355P/LINEAR-NEAT,e,11.0472,51.4341,336.3351,3.469129,0.1525364,0.50801158,354.4456,02/25.0/2024,2000,g 15.5,2.0
# From MPEC 2022-F14
356P/WISE,e,9.6401,160.8158,226.1162,4.154829,0.1163789,0.35607121,262.4821,02/25.0/2024,2000,g 14.0,4.0
# From MPC114609
357P/Hill,e,6.3147,44.5810,1.4375,4.456375,0.1047687,0.43611204,219.3966,02/25.0/2024,2000,g 15.5,4.0
# From MPEC 2024-BE0
358P/PANSTARRS,e,11.0628,85.6694,299.6516,3.149938,0.1762995,0.23977372,18.7588,02/25.0/2024,2000,g 18.0,4.0
# From MPC110086
359P/LONEOS,e,10.2644,149.7769,200.2884,4.641091,0.0985766,0.32366637,234.2332,02/25.0/2024,2000,g 13.5,4.0
# From MPC108599
360P/WISE,e,24.1083,2.2149,354.2288,3.697606,0.1386191,0.49919832,329.2648,02/25.0/2024,2000,g 19.5,6.0
# From MPEC 2023-CD7
361P/Spacewatch,e,13.9028,203.2566,219.0463,4.933832,0.0899347,0.43950664,185.2948,02/25.0/2024,2000,g 12.0,4.0
# From MPEC 2017-V13
